[{"OBJECT_NAME":"STARLINK-32273","OBJECT_ID":"2024-209T","EPOCH":"2026-03-09T12:35:16.446624","MEAN_MOTION":15.30196803,"ECCENTRICITY":0.00013005,"INCLINATION":53.1605,"RA_OF_ASC_NODE":143.0238,"ARG_OF_PERICENTER":64.5828,"MEAN_ANOMALY":295.5308,"EPHEMERIS_TYPE":0,"CLASSIFICATION_TYPE":"U","NORAD_CAT_ID":61956,"ELEMENT_SET_NO":999,"REV_AT_EPOCH":7487,"BSTAR":0.00068061256,"MEAN_MOTION_DOT":0.0001985,"MEAN_MOTION_DDOT":0},{"OBJECT_NAME":"COSMOS 2251 DEB","OBJECT_ID":"1993-036AMV","EPOCH":"2026-03-09T05:38:06.550656","MEAN_MOTION":15.39543317,"ECCENTRICITY":0.00779257,"INCLINATION":73.9961,"RA_OF_ASC_NODE":355.5603,"ARG_OF_PERICENTER":37.2584,"MEAN_ANOMALY":111.9555,"EPHEMERIS_TYPE":0,"CLASSIFICATION_TYPE":"U","NORAD_CAT_ID":35602,"ELEMENT_SET_NO":999,"REV_AT_EPOCH":91420,"BSTAR":0.00072859847,"MEAN_MOTION_DOT":0.00031956,"MEAN_MOTION_DDOT":0}]
